[{"OBJECT_NAME":"STARLINK-5274","OBJECT_ID":"2023-014E","EPOCH":"2026-03-09T09:12:35.477280","MEAN_MOTION":14.98326744,"ECCENTRICITY":0.00030905,"INCLINATION":70,"RA_OF_ASC_NODE":65.0584,"ARG_OF_PERICENTER":264.8556,"MEAN_ANOMALY":95.2251,"EPHEMERIS_TYPE":0,"CLASSIFICATION_TYPE":"U","NORAD_CAT_ID":55395,"ELEMENT_SET_NO":999,"REV_AT_EPOCH":17201,"BSTAR":-4.1288815e-5,"MEAN_MOTION_DOT":-5.86e-6,"MEAN_MOTION_DDOT":0},{"OBJECT_NAME":"COSMOS 2251 DEB","OBJECT_ID":"1993-036BRU","EPOCH":"2026-02-21T14:09:45.153216","MEAN_MOTION":14.99001579,"ECCENTRICITY":0.0017259,"INCLINATION":74.0061,"RA_OF_ASC_NODE":146.9269,"ARG_OF_PERICENTER":277.3195,"MEAN_ANOMALY":147.2685,"EPHEMERIS_TYPE":0,"CLASSIFICATION_TYPE":"U","NORAD_CAT_ID":38062,"ELEMENT_SET_NO":999,"REV_AT_EPOCH":64090,"BSTAR":0.0019091,"MEAN_MOTION_DOT":0.00023247,"MEAN_MOTION_DDOT":0}]
